algorithm,apogee,argOfPerigee,bStar,classificationMarking,elset_created_at,elset_created_by,dataMode,eccentricity,idElset,idOnOrbit,inclination,line1,line2,meanAnomaly,meanMotion,meanMotionDDot,meanMotionDot,origNetwork,perigee,period,raan,revNo,satNo,semiMajorAxis,source,__START_AT,__END_AT,COUNTRY,LAUNCH,LAUNCH_NUM,LAUNCH_PIECE,NORAD_CAT_ID,OBJECT_ID,OBJECT_NAME,OBJECT_NUMBER,OBJECT_TYPE,RCS_SIZE,SATNAME,SITE,satcat_current_fetch_date
SGP4,6897.161,276.3882,2.083E-4,U,2024-02-01T05:05:15.314Z,system.ob-ingest,REAL,1.455E-4,b8aa487f-efbb-458a-9a38-aff0b1da0bb6,57928,43.0015,1 57928U 23147R   24031.84907878 +.00003841 +00000+0 +20830-3 0 99999,2 57928  43.0015 180.0708 0001455 276.3882  83.6799 15.15974793021063,83.6799,15.15974793,0.0,3.841E-5,OPS1,6895.154,94.988,180.0708,2106,57928,6896.158,18th SPCS,2024-01-31T20:22:40.406592Z,2024-02-01T10:36:36.390240Z,US,2023-09-24,147,R,57928,2023-147R,STARLINK-30448,57928,PAYLOAD,LARGE,STARLINK-30448,AFETR,2024-08-21
SGP4,6888.889,96.2925,4.9831E-5,U,2024-01-31T15:05:15.145Z,system.ob-ingest,REAL,1.563E-4,221dcae9-046c-4fa3-872b-10680d3b4ebb,57949,53.0541,1 57949U 23148Q   24031.19427746 +.00000729 +00000+0 +49831-4 0 99997,2 57949  53.0541 348.8571 0001563  96.2925 263.8247 15.18730687020761,263.8247,15.18730687,0.0,7.29E-6,OPS1,6886.736,94.816,348.8571,2076,57949,6887.813,18th SPCS,2024-01-31T04:39:45.572544Z,2024-02-01T02:46:29.648352Z,US,2023-09-25,148,Q,57949,2023-148Q,STARLINK-30707,57949,PAYLOAD,LARGE,STARLINK-30707,AFWTR,2024-08-21
SGP4,6938.213,266.2467,2.3336E-4,U,2024-02-01T05:05:15.542Z,system.ob-ingest,REAL,1.461E-4,f4a0e32e-f1b5-4394-a68b-06f211e5ac0c,57983,43.0018,1 57983U 23151V   24031.90226350 +.00002950 +00000+0 +23336-3 0 99995,2 57983  43.0018 203.8567 0001461 266.2467  93.8208 15.02541497020084,93.8208,15.02541497,0.0,2.95E-5,OPS1,6936.186,95.838,203.8567,2008,57983,6937.2,18th SPCS,2024-01-31T21:39:15.566400Z,2024-02-01T10:25:05.164320Z,US,2023-09-30,151,V,57983,2023-151V,STARLINK-30515,57983,PAYLOAD,LARGE,STARLINK-30515,AFETR,2024-08-21
SGP4,6937.744,262.9748,0.0015275,U,2024-01-31T23:05:17.715Z,system.ob-ingest,REAL,8.34E-5,c87da0ce-93e1-43de-955f-0d382cbef8b5,58208,43.0002,1 58208U 23170C   24031.52857162 +.00020500 +00000+0 +15275-2 0 99999,2 58208  43.0002  50.2598 0000834 262.9748  97.1000 15.02552651014729,97.1,15.02552651,0.0,2.05E-4,OPS1,6936.587,95.837,50.2598,1472,58208,6937.165,18th SPCS,2024-01-31T12:41:08.587968Z,2024-02-01T01:26:58.400160Z,US,2023-11-03,170,C,58208,2023-170C,STARLINK-30841,58208,PAYLOAD,LARGE,STARLINK-30841,AFETR,2024-08-21
SGP4,6897.031,260.5598,0.0018113,U,2024-02-01T05:05:15.749Z,system.ob-ingest,REAL,2.848E-4,14237211-c4c3-405e-a2f1-fbeda10f70e4,58409,42.9982,1 58409U 23180H   24031.70485004 +.00035713 +00000+0 +18113-2 0 99991,2 58409  42.9982 268.7287 0002848 260.5598  99.4927 15.16334325012061,99.4927,15.16334325,0.0,3.5713E-4,OPS1,6893.104,94.966,268.7287,1206,58409,6895.068,18th SPCS,2024-01-31T16:54:59.043456Z,2024-02-01T00:49:15.544416Z,US,2023-11-22,180,H,58409,2023-180H,STARLINK-30940,58409,PAYLOAD,LARGE,STARLINK-30940,AFETR,2024-08-21
SGP4,6938.085,271.5428,-0.0028267,U,2024-01-31T23:05:17.970Z,system.ob-ingest,REAL,1.297E-4,515b6c41-0d26-43ef-b3b0-57873b210515,58450,42.9988,1 58450U 23183P   24031.91667824 -.00038191 +00000+0 -28267-2 0 99991,2 58450  42.9988 255.3916 0001297 271.5428 280.4597 15.02546017011247,280.4597,15.02546017,0.0,-3.8191E-4,OPS1,6936.286,95.837,255.3916,1124,58450,6937.186,18th SPCS,2024-01-31T22:00:00.999936Z,2024-02-01T14:00:01.000224Z,US,2023-11-28,183,P,58450,2023-183P,STARLINK-30946,58450,PAYLOAD,LARGE,STARLINK-30946,AFETR,2024-08-21
SGP4,6867.18,259.5557,7.1484E-4,U,2024-02-01T05:05:15.821Z,system.ob-ingest,REAL,1.466E-4,3a14f178-fc33-4cd2-8ab4-aa6ec5704caf,58475,42.9999,1 58475U 23186C   24031.89594585 +.00018492 +00000+0 +71484-3 0 99991,2 58475  42.9999 282.9927 0001466 259.5557 100.5129 15.25916098010316,100.5129,15.25916098,0.0,1.8492E-4,OPS1,6865.166,94.37,282.9927,1031,58475,6866.173,18th SPCS,2024-01-31T21:30:09.721440Z,2024-02-01T00:38:40.820640Z,US,2023-12-03,186,C,58475,2023-186C,STARLINK-30941,58475,PAYLOAD,LARGE,STARLINK-30941,AFETR,2024-08-21
SGP4,6867.224,259.66,0.002431,U,2024-01-31T23:05:17.754Z,system.ob-ingest,REAL,1.713E-4,18386f84-860f-4b0c-b06e-732a72709ce7,58513,43.0004,1 58513U 23191F   24031.83388229 +.00063980 +00000+0 +24310-2 0 99997,2 58513  43.0004 327.0063 0001713 259.6600 100.4058 15.25957879009865,100.4058,15.25957879,0.0,6.398E-4,OPS1,6864.871,94.367,327.0063,986,58513,6866.048,18th SPCS,2024-01-31T20:00:47.429856Z,2024-02-01T02:17:49.349184Z,US,2023-12-07,191,F,58513,2023-191F,STARLINK-30998,58513,PAYLOAD,LARGE,STARLINK-30998,AFETR,2024-08-21
SGP4,6867.076,234.4576,2.4258E-4,U,2024-02-01T05:05:15.729Z,system.ob-ingest,REAL,1.199E-4,df23924b-d53f-445e-ab64-042fe52ce110,58519,42.9989,1 58519U 23191M   24031.91907259 +.00006089 +00000+0 +24258-3 0 99991,2 58519  42.9989 325.0085 0001199 234.4576 125.6163 15.25889665009867,125.6163,15.25889665,0.0,6.089E-5,OPS1,6865.429,94.371,325.0085,986,58519,6866.252,18th SPCS,2024-01-31T22:03:27.871776Z,2024-02-01T01:11:58.677216Z,US,2023-12-07,191,M,58519,2023-191M,STARLINK-31010,58519,PAYLOAD,LARGE,STARLINK-31010,AFETR,2024-08-21
SGP4,6866.47,263.6988,1.1826E-5,U,2024-02-01T05:05:15.746Z,system.ob-ingest,REAL,4.21E-5,818334f6-134d-4240-bbe1-d48d8f553e70,58633,43.0006,1 58633U 23203R   24031.57880367 +.00000052 +00000+0 +11826-4 0 99996,2 58633  43.0006  79.4034 0000421 263.6988  96.3815 15.25913298007381,96.3815,15.25913298,0.0,5.2E-7,OPS1,6865.892,94.37,79.4034,738,58633,6866.181,18th SPCS,2024-01-31T13:53:28.637088Z,2024-02-01T11:53:07.203264Z,US,2023-12-23,203,R,58633,2023-203R,STARLINK-31022,58633,PAYLOAD,LARGE,STARLINK-31022,AFETR,2024-08-21
SGP4,6867.11,275.66,6.6725E-5,U,2024-01-31T23:05:18.178Z,system.ob-ingest,REAL,1.325E-4,dfc528d6-1883-4101-ae99-c991246f004d,58689,43.0024,1 58689U 23211Y   24031.56445668 +.00001488 +00000+0 +66725-4 0 99998,2 58689  43.0024  96.0406 0001325 275.6600  84.4100 15.25907034005078,84.41,15.25907034,0.0,1.488E-5,OPS1,6865.29,94.37,96.0406,507,58689,6866.2,18th SPCS,2024-01-31T13:32:49.057152Z,2024-02-01T13:06:43.102080Z,US,2023-12-29,211,Y,58689,2023-211Y,STARLINK-31106,58689,PAYLOAD,LARGE,STARLINK-31106,AFETR,2024-08-21
SGP4,6738.646,74.9452,-7.2511E-5,U,2024-01-31T23:05:17.663Z,system.ob-ingest,REAL,1.199E-4,1f5bf5b0-6f9c-4ba0-be47-67565d3f5b09,58710,53.1577,1 58710U 24002F   24031.60118517 -.00009367 +00000+0 -72511-4 0 99993,2 58710  53.1577 107.5218 0001199  74.9452 285.1699 15.69719001005707,285.1699,15.69719001,0.0,-9.367E-5,OPS1,6737.03,91.736,107.5218,570,58710,6737.838,18th SPCS,2024-01-31T14:25:42.398688Z,2024-02-01T11:49:16.492800Z,US,2024-01-03,2,F,58710,2024-002F,STARLINK-11078,58710,PAYLOAD,LARGE,STARLINK-11078,AFWTR,2024-08-21
SGP4,6926.406,105.9647,4.2435E-5,U,2024-01-31T15:05:12.943Z,system.ob-ingest,REAL,1.512E-4,25da0758-314b-4002-8e47-bda45a1938a1,44740,53.0559,1 44740U 19074AD  24031.47227364 +.00000351 +00000+0 +42435-4 0 99994,2 44740  53.0559  55.2871 0001512 105.9647 254.1509 15.06396595232852,254.1509,15.06396595,0.0,3.51E-6,OPS1,6924.312,95.592,55.2871,23285,44740,6925.359,18th SPCS,2024-01-31T11:20:04.442496Z,2024-02-01T11:13:09.103008Z,US,2019-11-11,74,AD,44740,2019-074AD,STARLINK-1035,44740,PAYLOAD,LARGE,STARLINK-1035,AFETR,2024-08-21
SGP4,6927.159,144.8226,-4.9627E-5,U,2024-02-01T05:05:14.233Z,system.ob-ingest,REAL,2.578E-4,150ed77d-d2c8-49d4-a0ff-64813959c2c0,44926,53.0559,1 44926U 20001N   24031.86114945 -.00001021 +00000+0 -49627-4 0 99992,2 44926  53.0559 193.6127 0002578 144.8226 215.2934 15.06391753224804,215.2934,15.06391753,0.0,-1.021E-5,OPS1,6923.588,95.593,193.6127,22480,44926,6925.374,18th SPCS,2024-01-31T20:40:03.312480Z,2024-02-01T10:59:54.962592Z,US,2020-01-07,1,N,44926,2020-001N,STARLINK-1113,44926,PAYLOAD,LARGE,STARLINK-1113,AFETR,2024-08-21
SGP4,6925.929,98.6885,1.1765E-5,U,2024-02-01T05:05:14.244Z,system.ob-ingest,REAL,8.16E-5,10efe6e3-5826-48fb-8562-4ac8fcc5f2c6,44930,53.0524,1 44930U 20001S   24031.89062454 -.00000106 +00000+0 +11765-4 0 99991,2 44930  53.0524 193.4040 0000816  98.6885 261.4196 15.06394886224121,261.4196,15.06394886,0.0,-1.06E-6,OPS1,6924.799,95.592,193.404,22412,44930,6925.364,18th SPCS,2024-01-31T21:22:29.960256Z,2024-02-01T10:06:49.040352Z,US,2020-01-07,1,S,44930,2020-001S,STARLINK-1123,44930,PAYLOAD,LARGE,STARLINK-1123,AFETR,2024-08-21
SGP4,6926.404,76.2474,1.8936E-5,U,2024-01-31T23:05:15.077Z,system.ob-ingest,REAL,1.509E-4,338cd4fe-df2b-4d24-bc10-efb2cc9de206,44949,53.0539,1 44949U 20001AM  24031.79294598 +.00000001 +00000+0 +18936-4 0 99996,2 44949  53.0539 173.8442 0001509  76.2474 283.8683 15.06396507224380,283.8683,15.06396507,0.0,1.0E-8,OPS1,6924.314,95.592,173.8442,22438,44949,6925.359,18th SPCS,2024-01-31T19:01:50.532672Z,2024-02-01T12:32:46.016448Z,US,2020-01-07,1,AM,44949,2020-001AM,STARLINK-1122,44949,PAYLOAD,LARGE,STARLINK-1122,AFETR,2024-08-21
SGP4,6926.51,120.7211,-1.9059E-5,U,2024-01-31T15:05:13.504Z,system.ob-ingest,REAL,1.632E-4,47dd803a-a059-43ca-a31e-53d77a03170c,45061,53.0549,1 45061U 20006T   24031.46858263 -.00000565 +00000+0 -19059-4 0 99990,2 45061  53.0549 135.2927 0001632 120.7211 239.3939 15.06389840221017,239.3939,15.0638984,0.0,-5.65E-6,OPS1,6924.249,95.593,135.2927,22101,45061,6925.38,18th SPCS,2024-01-31T11:14:45.539232Z,2024-02-01T11:07:50.655072Z,US,2020-01-29,6,T,45061,2020-006T,STARLINK-1169,45061,PAYLOAD,LARGE,STARLINK-1169,AFETR,2024-08-21
